SAUDISAT 1C (SO-50)     
1 27607U 02058C   26157.70320937  .00001144  00000+0  15193-3 0  9990
2 27607  64.5504 161.4222 0075466 264.4088  94.8408 14.83024338262904
SAUDISAT 2              
1 28371U 04025F   26157.72556318  .00000318  00000+0  82010-4 0  9996
2 28371  98.5506 157.4372 0024086 331.5636  28.4246 14.56677808164225
SAUDISAT 3              
1 31118U 07012B   26157.58232560  .00000331  00000+0  61665-4 0  9990
2 31118  98.1451 107.9763 0013272 260.6754  99.2952 14.71419518 26186
PISAT                   
1 41784U 16059B   26157.79037896  .00001044  00000+0  18530-3 0  9993
2 41784  97.8178 158.6901 0027691 237.2056 122.6482 14.68965750518219
FLYING LAPTOP           
1 42831U 17042G   26157.85335031  .00004642  00000+0  36601-3 0  9995
2 42831  97.4652 313.7874 0019013 155.4398 204.7736 15.01078856484900
SALSAT                  
1 46495U 20068K   26157.74488442  .00010129  00000+0  35498-3 0  9990
2 46495  97.8851 160.1753 0009050 349.8452  10.2602 15.29647917313762
